[
  {
    "COMMENT": "GENERATED VIA SPACETRACK.ORG API",
    "ORIGINATOR": "18 SPCS",
    "NORAD_CAT_ID": "46984",
    "OBJECT_NAME": "S6 MICHAEL FREILICH",
    "OBJECT_TYPE": "PAYLOAD",
    "CLASSIFICATION_TYPE": "U",
    "INTLDES": "20086A",
    "EPOCH": "2023-04-08 02:23:15",
    "EPOCH_MICROSECONDS": "660384",
    "MEAN_MOTION": "12.8093057",
    "ECCENTRICITY": "0.0008177",
    "INCLINATION": "66.0445",
    "RA_OF_ASC_NODE": "37.0343",
    "ARG_OF_PERICENTER": "264.837",
    "MEAN_ANOMALY": "95.1704",
    "EPHEMERIS_TYPE": "0",
    "ELEMENT_SET_NO": "999",
    "REV_AT_EPOCH": "11110",
    "BSTAR": "0",
    "MEAN_MOTION_DOT": "-0.00000061",
    "MEAN_MOTION_DDOT": "0",
    "FILE": "3883103",
    "TLE_LINE0": "0 S6 MICHAEL FREILICH",
    "TLE_LINE1": "1 46984U 20086A   23098.09948681 -.00000061  00000-0  00000+0 0  9991",
    "TLE_LINE2": "2 46984  66.0445  37.0343 0008177 264.8370  95.1704 12.80930570111106",
    "OBJECT_ID": "2020-086A",
    "OBJECT_NUMBER": "46984",
    "SEMIMAJOR_AXIS": "7715.868",
    "PERIOD": "112.418",
    "APOGEE": "1344.042",
    "PERIGEE": "1331.424",
    "DECAYED": "0"
  },
  {
    "COMMENT": "GENERATED VIA SPACETRACK.ORG API",
    "ORIGINATOR": "18 SPCS",
    "NORAD_CAT_ID": "46984",
    "OBJECT_NAME": "S6 MICHAEL FREILICH",
    "OBJECT_TYPE": "PAYLOAD",
    "CLASSIFICATION_TYPE": "U",
    "INTLDES": "20086A",
    "EPOCH": "2023-04-08 04:15:41",
    "EPOCH_MICROSECONDS": "434560",
    "MEAN_MOTION": "12.80930572",
    "ECCENTRICITY": "0.000818",
    "INCLINATION": "66.0445",
    "RA_OF_ASC_NODE": "36.8722",
    "ARG_OF_PERICENTER": "264.8652",
    "MEAN_ANOMALY": "95.143",
    "EPHEMERIS_TYPE": "0",
    "ELEMENT_SET_NO": "999",
    "REV_AT_EPOCH": "11111",
    "BSTAR": "0",
    "MEAN_MOTION_DOT": "-0.00000061",
    "MEAN_MOTION_DDOT": "0",
    "FILE": "3883527",
    "TLE_LINE0": "0 S6 MICHAEL FREILICH",
    "TLE_LINE1": "1 46984U 20086A   23098.17756290 -.00000061  00000-0  00000-0 0  9994",
    "TLE_LINE2": "2 46984  66.0445  36.8722 0008180 264.8652  95.1430 12.80930572111110",
    "OBJECT_ID": "2020-086A",
    "OBJECT_NUMBER": "46984",
    "SEMIMAJOR_AXIS": "7715.868",
    "PERIOD": "112.418",
    "APOGEE": "1344.044",
    "PERIGEE": "1331.421",
    "DECAYED": "0"
  },
  {
    "COMMENT": "GENERATED VIA SPACETRACK.ORG API",
    "ORIGINATOR": "18 SPCS",
    "NORAD_CAT_ID": "46984",
    "OBJECT_NAME": "S6 MICHAEL FREILICH",
    "OBJECT_TYPE": "PAYLOAD",
    "CLASSIFICATION_TYPE": "U",
    "INTLDES": "20086A",
    "EPOCH": "2023-04-09 02:44:50",
    "EPOCH_MICROSECONDS": "529408",
    "MEAN_MOTION": "12.80930581",
    "ECCENTRICITY": "0.0008185",
    "INCLINATION": "66.0446",
    "RA_OF_ASC_NODE": "34.9266",
    "ARG_OF_PERICENTER": "264.9023",
    "MEAN_ANOMALY": "95.105",
    "EPHEMERIS_TYPE": "0",
    "ELEMENT_SET_NO": "999",
    "REV_AT_EPOCH": "11123",
    "BSTAR": "0",
    "MEAN_MOTION_DOT": "-0.00000061",
    "MEAN_MOTION_DDOT": "0",
    "FILE": "3883989",
    "TLE_LINE0": "0 S6 MICHAEL FREILICH",
    "TLE_LINE1": "1 46984U 20086A   23099.11447372 -.00000061  00000-0  00000+0 0  9996",
    "TLE_LINE2": "2 46984  66.0446  34.9266 0008185 264.9023  95.1050 12.80930581111232",
    "OBJECT_ID": "2020-086A",
    "OBJECT_NUMBER": "46984",
    "SEMIMAJOR_AXIS": "7715.868",
    "PERIOD": "112.418",
    "APOGEE": "1344.048",
    "PERIGEE": "1331.417",
    "DECAYED": "0"
  },
  {
    "COMMENT": "GENERATED VIA SPACETRACK.ORG API",
    "ORIGINATOR": "18 SPCS",
    "NORAD_CAT_ID": "46984",
    "OBJECT_NAME": "S6 MICHAEL FREILICH",
    "OBJECT_TYPE": "PAYLOAD",
    "CLASSIFICATION_TYPE": "U",
    "INTLDES": "20086A",
    "EPOCH": "2023-04-09 04:37:16",
    "EPOCH_MICROSECONDS": "302720",
    "MEAN_MOTION": "12.80930586",
    "ECCENTRICITY": "0.0008182",
    "INCLINATION": "66.0447",
    "RA_OF_ASC_NODE": "34.7643",
    "ARG_OF_PERICENTER": "264.8696",
    "MEAN_ANOMALY": "95.1386",
    "EPHEMERIS_TYPE": "0",
    "ELEMENT_SET_NO": "999",
    "REV_AT_EPOCH": "11124",
    "BSTAR": "0",
    "MEAN_MOTION_DOT": "-0.00000061",
    "MEAN_MOTION_DDOT": "0",
    "FILE": "3884332",
    "TLE_LINE0": "0 S6 MICHAEL FREILICH",
    "TLE_LINE1": "1 46984U 20086A   23099.19254980 -.00000061  00000-0  00000-0 0  9996",
    "TLE_LINE2": "2 46984  66.0447  34.7643 0008182 264.8696  95.1386 12.80930586111240",
    "OBJECT_ID": "2020-086A",
    "OBJECT_NUMBER": "46984",
    "SEMIMAJOR_AXIS": "7715.868",
    "PERIOD": "112.418",
    "APOGEE": "1344.046",
    "PERIGEE": "1331.420",
    "DECAYED": "0"
  },
  {
    "COMMENT": "GENERATED VIA SPACETRACK.ORG API",
    "ORIGINATOR": "18 SPCS",
    "NORAD_CAT_ID": "46984",
    "OBJECT_NAME": "S6 MICHAEL FREILICH",
    "OBJECT_TYPE": "PAYLOAD",
    "CLASSIFICATION_TYPE": "U",
    "INTLDES": "20086A",
    "EPOCH": "2023-04-09 17:44:16",
    "EPOCH_MICROSECONDS": "613952",
    "MEAN_MOTION": "12.80930588",
    "ECCENTRICITY": "0.0008187",
    "INCLINATION": "66.0447",
    "RA_OF_ASC_NODE": "33.6289",
    "ARG_OF_PERICENTER": "264.7404",
    "MEAN_ANOMALY": "95.2679",
    "EPHEMERIS_TYPE": "0",
    "ELEMENT_SET_NO": "999",
    "REV_AT_EPOCH": "11131",
    "BSTAR": "0",
    "MEAN_MOTION_DOT": "-0.00000061",
    "MEAN_MOTION_DDOT": "0",
    "FILE": "3884641",
    "TLE_LINE0": "0 S6 MICHAEL FREILICH",
    "TLE_LINE1": "1 46984U 20086A   23099.73908118 -.00000061  00000-0  00000-0 0  9995",
    "TLE_LINE2": "2 46984  66.0447  33.6289 0008187 264.7404  95.2679 12.80930588111311",
    "OBJECT_ID": "2020-086A",
    "OBJECT_NUMBER": "46984",
    "SEMIMAJOR_AXIS": "7715.868",
    "PERIOD": "112.418",
    "APOGEE": "1344.050",
    "PERIGEE": "1331.416",
    "DECAYED": "0"
  },
  {
    "COMMENT": "GENERATED VIA SPACETRACK.ORG API",
    "ORIGINATOR": "18 SPCS",
    "NORAD_CAT_ID": "46984",
    "OBJECT_NAME": "S6 MICHAEL FREILICH",
    "OBJECT_TYPE": "PAYLOAD",
    "CLASSIFICATION_TYPE": "U",
    "INTLDES": "20086A",
    "EPOCH": "2023-04-10 04:58:51",
    "EPOCH_MICROSECONDS": "191616",
    "MEAN_MOTION": "12.80930592",
    "ECCENTRICITY": "0.0008122",
    "INCLINATION": "66.045",
    "RA_OF_ASC_NODE": "32.6552",
    "ARG_OF_PERICENTER": "265.4493",
    "MEAN_ANOMALY": "94.5593",
    "EPHEMERIS_TYPE": "0",
    "ELEMENT_SET_NO": "999",
    "REV_AT_EPOCH": "11137",
    "BSTAR": "0",
    "MEAN_MOTION_DOT": "-0.00000061",
    "MEAN_MOTION_DDOT": "0",
    "FILE": "3884883",
    "TLE_LINE0": "0 S6 MICHAEL FREILICH",
    "TLE_LINE1": "1 46984U 20086A   23100.20753694 -.00000061  00000-0  00000+0 0  9996",
    "TLE_LINE2": "2 46984  66.0450  32.6552 0008122 265.4493  94.5593 12.80930592111370",
    "OBJECT_ID": "2020-086A",
    "OBJECT_NUMBER": "46984",
    "SEMIMAJOR_AXIS": "7715.868",
    "PERIOD": "112.418",
    "APOGEE": "1344.000",
    "PERIGEE": "1331.466",
    "DECAYED": "0"
  },
  {
    "COMMENT": "GENERATED VIA SPACETRACK.ORG API",
    "ORIGINATOR": "18 SPCS",
    "NORAD_CAT_ID": "46984",
    "OBJECT_NAME": "S6 MICHAEL FREILICH",
    "OBJECT_TYPE": "PAYLOAD",
    "CLASSIFICATION_TYPE": "U",
    "INTLDES": "20086A",
    "EPOCH": "2023-04-10 04:58:51",
    "EPOCH_MICROSECONDS": "191616",
    "MEAN_MOTION": "12.80930592",
    "ECCENTRICITY": "0.0008122",
    "INCLINATION": "66.045",
    "RA_OF_ASC_NODE": "32.6552",
    "ARG_OF_PERICENTER": "265.4493",
    "MEAN_ANOMALY": "94.5593",
    "EPHEMERIS_TYPE": "0",
    "ELEMENT_SET_NO": "999",
    "REV_AT_EPOCH": "11137",
    "BSTAR": "0",
    "MEAN_MOTION_DOT": "-0.00000061",
    "MEAN_MOTION_DDOT": "0",
    "FILE": "3885195",
    "TLE_LINE0": "0 S6 MICHAEL FREILICH",
    "TLE_LINE1": "1 46984U 20086A   23100.20753694 -.00000061  00000-0  00000-0 0  9997",
    "TLE_LINE2": "2 46984  66.0450  32.6552 0008122 265.4493  94.5593 12.80930592111370",
    "OBJECT_ID": "2020-086A",
    "OBJECT_NUMBER": "46984",
    "SEMIMAJOR_AXIS": "7715.868",
    "PERIOD": "112.418",
    "APOGEE": "1344.000",
    "PERIGEE": "1331.466",
    "DECAYED": "0"
  },
  {
    "COMMENT": "GENERATED VIA SPACETRACK.ORG API",
    "ORIGINATOR": "18 SPCS",
    "NORAD_CAT_ID": "46984",
    "OBJECT_NAME": "S6 MICHAEL FREILICH",
    "OBJECT_TYPE": "PAYLOAD",
    "CLASSIFICATION_TYPE": "U",
    "INTLDES": "20086A",
    "EPOCH": "2023-04-10 21:50:43",
    "EPOCH_MICROSECONDS": "6272",
    "MEAN_MOTION": "12.80930643",
    "ECCENTRICITY": "0.0008123",
    "INCLINATION": "66.0451",
    "RA_OF_ASC_NODE": "31.1956",
    "ARG_OF_PERICENTER": "265.6452",
    "MEAN_ANOMALY": "94.3632",
    "EPHEMERIS_TYPE": "0",
    "ELEMENT_SET_NO": "999",
    "REV_AT_EPOCH": "11146",
    "BSTAR": "0",
    "MEAN_MOTION_DOT": "-0.00000061",
    "MEAN_MOTION_DDOT": "0",
    "FILE": "3885363",
    "TLE_LINE0": "0 S6 MICHAEL FREILICH",
    "TLE_LINE1": "1 46984U 20086A   23100.91021998 -.00000061  00000-0  00000-0 0  9990",
    "TLE_LINE2": "2 46984  66.0451  31.1956 0008123 265.6452  94.3632 12.80930643111460",
    "OBJECT_ID": "2020-086A",
    "OBJECT_NUMBER": "46984",
    "SEMIMAJOR_AXIS": "7715.868",
    "PERIOD": "112.418",
    "APOGEE": "1344.000",
    "PERIGEE": "1331.465",
    "DECAYED": "0"
  }
]